CTC2_L_00344016-03
1 35562U 26490KF  26037.47793981  .00000000  00000+0  00000-0 0  9997
2 35562  70.0000 180.0000 0000000   0.0000   0.0000 13.42494869    10
CTC2_L_00344016-04
1 35563U 25893TV  26037.47793981  .00000000  00000+0  00000-0 0  9994
2 35563  70.0000 180.0000 0000000   0.0000  90.0000 13.42494869    10
CTC2_L_00344017-01
1 35564U 23408PM  26037.47793981  .00000000  00000+0  00000-0 0  9995
2 35564  70.0000 192.0000 0000000   0.0000 192.0000 13.42494869    17
CTC2_L_00344017-02
1 35565U 23539QO  26037.47793981  .00000000  00000+0  00000-0 0  9991
2 35565  70.0000 192.0000 0000000   0.0000 282.0000 13.42494869    18
CTC2_L_00344017-03
1 35566U 26013LN  26037.47793981  .00000000  00000+0  00000-0 0  9992
2 35566  70.0000 192.0000 0000000   0.0000  12.0000 13.42494869    10
CTC2_L_00344017-04
1 35567U 22876M   26037.47793981  .00000000  00000+0  00000-0 0  9996
2 35567  70.0000 192.0000 0000000   0.0000 102.0000 13.42494869    11
CTC2_L_00344018-01
1 35568U 25569VK  26037.47793981  .00000000  00000+0  00000-0 0  9999
2 35568  70.0000 204.0000 0000000   0.0000 204.0000 13.42494869    19
CTC2_L_00344018-02
1 35569U 26719HQ  26037.47793981  .00000000  00000+0  00000-0 0  9998
2 35569  70.0000 204.0000 0000000   0.0000 294.0000 13.42494869    19
CTC2_L_00344018-03
1 35570U 23895DG  26037.47793981  .00000000  00000+0  00000-0 0  9992
2 35570  70.0000 204.0000 0000000   0.0000  24.0000 13.42494869    12
CTC2_L_00344018-04
1 35571U 26813JW  26037.47793981  .00000000  00000+0  00000-0 0  9996
2 35571  70.0000 204.0000 0000000   0.0000 114.0000 13.42494869    13
CTC2_L_00344019-01
1 35572U 25500US  26037.47793981  .00000000  00000+0  00000-0 0  9999
2 35572  70.0000 216.0000 0000000   0.0000 216.0000 13.42494869    10
CTC2_L_00344019-02
1 35573U 23031JB  26037.47793981  .00000000  00000+0  00000-0 0  9997
2 35573  70.0000 216.0000 0000000   0.0000 306.0000 13.42494869    11
CTC2_L_00344019-03
1 35574U 22033GJ  26037.47793981  .00000000  00000+0  00000-0 0  9999
2 35574  70.0000 216.0000 0000000   0.0000  36.0000 13.42494869    12
CTC2_L_00344019-04
1 35575U 22421LW  26037.47793981  .00000000  00000+0  00000-0 0  9991
2 35575  70.0000 216.0000 0000000   0.0000 126.0000 13.42494869    13
CTC2_L_00344020-01
1 35576U 25255QJ  26037.47793981  .00000000  00000+0  00000-0 0  9990
2 35576  70.0000 228.0000 0000000   0.0000 228.0000 13.42494869    10
CTC2_L_00344020-02
1 35577U 26179HM  26037.47793981  .00000000  00000+0  00000-0 0  9997
2 35577  70.0000 228.0000 0000000   0.0000 318.0000 13.42494869    11
CTC2_L_00344020-03
1 35578U 23598ZE  26037.47793981  .00000000  00000+0  00000-0 0  9990
2 35578  70.0000 228.0000 0000000   0.0000  48.0000 13.42494869    12
CTC2_L_00344020-04
1 35579U 25112QU  26037.47793981  .00000000  00000+0  00000-0 0  9995
2 35579  70.0000 228.0000 0000000   0.0000 138.0000 13.42494869    13
CTC2_L_00344021-01
1 35580U 26564HL  26037.47793981  .00000000  00000+0  00000-0 0  9999
2 35580  70.0000 240.0000 0000000   0.0000 240.0000 13.42494869    13
CTC2_L_00344021-02
1 35581U 22827BN  26037.47793981  .00000000  00000+0  00000-0 0  9998
2 35581  70.0000 240.0000 0000000   0.0000 330.0000 13.42494869    14
CTC2_L_00344021-03
1 35582U 24042U   26037.47793981  .00000000  00000+0  00000-0 0  9990
2 35582  70.0000 240.0000 0000000   0.0000  60.0000 13.42494869    15
CTC2_L_00344021-04
1 35583U 24571FQ  26037.47793981  .00000000  00000+0  00000-0 0  9998
2 35583  70.0000 240.0000 0000000   0.0000 150.0000 13.42494869    16
CTC2_L_00344022-01
1 35584U 22510PX  26037.47793981  .00000000  00000+0  00000-0 0  9990
2 35584  70.0000 252.0000 0000000   0.0000 252.0000 13.42494869    13
CTC2_L_00344022-02
1 35585U 22248YH  26037.47793981  .00000000  00000+0  00000-0 0  9999
2 35585  70.0000 252.0000 0000000   0.0000 342.0000 13.42494869    14
CTC2_L_00344022-03
1 35586U 23669JF  26037.47793981  .00000000  00000+0  00000-0 0  9998
2 35586  70.0000 252.0000 0000000   0.0000  72.0000 13.42494869    15
CTC2_L_00344022-04
1 35587U 25437IN  26037.47793981  .00000000  00000+0  00000-0 0  9994
2 35587  70.0000 252.0000 0000000   0.0000 162.0000 13.42494869    16
CTC2_L_00344023-01
1 35588U 25007JW  26037.47793981  .00000000  00000+0  00000-0 0  9998
2 35588  70.0000 264.0000 0000000   0.0000 264.0000 13.42494869    13
CTC2_L_00344023-02
1 35589U 24892XC  26037.47793981  .00000000  00000+0  00000-0 0  9990
2 35589  70.0000 264.0000 0000000   0.0000 354.0000 13.42494869    14
CTC2_L_00344023-03
1 35590U 25557HO  26037.47793981  .00000000  00000+0  00000-0 0  9991
2 35590  70.0000 264.0000 0000000   0.0000  84.0000 13.42494869    16
CTC2_L_00344023-04
1 35591U 22025UW  26037.47793981  .00000000  00000+0  00000-0 0  9999
2 35591  70.0000 264.0000 0000000   0.0000 174.0000 13.42494869    17
CTC2_L_00344024-01
1 35592U 23195VF  26037.47793981  .00000000  00000+0  00000-0 0  9999
2 35592  70.0000 276.0000 0000000   0.0000 276.0000 13.42494869    14
CTC2_L_00344024-02
1 35593U 23410JS  26037.47793981  .00000000  00000+0  00000-0 0  9990
2 35593  70.0000 276.0000 0000000   0.0000   6.0000 13.42494869    16
CTC2_L_00344024-03
1 35594U 23413NP  26037.47793981  .00000000  00000+0  00000-0 0  9994
2 35594  70.0000 276.0000 0000000   0.0000  96.0000 13.42494869    16
CTC2_L_00344024-04
1 35595U 22741QI  26037.47793981  .00000000  00000+0  00000-0 0  9998
2 35595  70.0000 276.0000 0000000   0.0000 186.0000 13.42494869    17
CTC2_L_00344025-01
1 35596U 25114TC  26037.47793981  .00000000  00000+0  00000-0 0  9996
2 35596  70.0000 288.0000 0000000   0.0000 288.0000 13.42494869    14
CTC2_L_00344025-02
1 35597U 25225HR  26037.47793981  .00000000  00000+0  00000-0 0  9990
2 35597  70.0000 288.0000 0000000   0.0000  18.0000 13.42494869    16
CTC2_L_00344025-03
1 35598U 26289RI  26037.47793981  .00000000  00000+0  00000-0 0  9992
2 35598  70.0000 288.0000 0000000   0.0000 108.0000 13.42494869    17
CTC2_L_00344025-04
1 35599U 26376YV  26037.47793981  .00000000  00000+0  00000-0 0  9990
2 35599  70.0000 288.0000 0000000   0.0000 198.0000 13.42494869    17
CTC2_L_00344026-01
1 35600U 24724ZE  26037.47793981  .00000000  00000+0  00000-0 0  9998
2 35600  70.0000 300.0000 0000000   0.0000 300.0000 13.42494869    10
CTC2_L_00344026-02
1 35601U 25691HL  26037.47793981  .00000000  00000+0  00000-0 0  9993
2 35601  70.0000 300.0000 0000000   0.0000  30.0000 13.42494869    11
CTC2_L_00344026-03
1 35602U 24292JL  26037.47793981  .00000000  00000+0  00000-0 0  9990
2 35602  70.0000 300.0000 0000000   0.0000 120.0000 13.42494869    12
CTC2_L_00344026-04
1 35603U 22309NV  26037.47793981  .00000000  00000+0  00000-0 0  9998
2 35603  70.0000 300.0000 0000000   0.0000 210.0000 13.42494869    13
CTC2_L_00344027-01
1 35604U 23933LJ  26037.47793981  .00000000  00000+0  00000-0 0  9993
2 35604  70.0000 312.0000 0000000   0.0000 312.0000 13.42494869    10
CTC2_L_00344027-02
1 35605U 26604RV  26037.47793981  .00000000  00000+0  00000-0 0  9992
2 35605  70.0000 312.0000 0000000   0.0000  42.0000 13.42494869    11
CTC2_L_00344027-03
1 35606U 23814SO  26037.47793981  .00000000  00000+0  00000-0 0  9993
2 35606  70.0000 312.0000 0000000   0.0000 132.0000 13.42494869    12
CTC2_L_00344027-04
1 35607U 25603EX  26037.47793981  .00000000  00000+0  00000-0 0  9992
2 35607  70.0000 312.0000 0000000   0.0000 222.0000 13.42494869    13
CTC2_L_00344028-01
1 35608U 22870Y   26037.47793981  .00000000  00000+0  00000-0 0  9996
2 35608  70.0000 324.0000 0000000   0.0000 324.0000 13.42494869    10
CTC2_L_00344028-02
1 35609U 23725ZU  26037.47793981  .00000000  00000+0  00000-0 0  9997
2 35609  70.0000 324.0000 0000000   0.0000  54.0000 13.42494869    11
CTC2_L_00344028-03
1 35610U 22918U   26037.47793981  .00000000  00000+0  00000-0 0  9992
2 35610  70.0000 324.0000 0000000   0.0000 144.0000 13.42494869    13
CTC2_L_00344028-04
1 35611U 22049PJ  26037.47793981  .00000000  00000+0  00000-0 0  9998
2 35611  70.0000 324.0000 0000000   0.0000 234.0000 13.42494869    14
CTC2_L_00344029-01
1 35612U 23608KR  26037.47793981  .00000000  00000+0  00000-0 0  9991
2 35612  70.0000 336.0000 0000000   0.0000 336.0000 13.42494869    11
CTC2_L_00344029-02
1 35613U 22163OI  26037.47793981  .00000000  00000+0  00000-0 0  9997
2 35613  70.0000 336.0000 0000000   0.0000  66.0000 13.42494869    12
CTC2_L_00344029-03
1 35614U 25296YB  26037.47793981  .00000000  00000+0  00000-0 0  9998
2 35614  70.0000 336.0000 0000000   0.0000 156.0000 13.42494869    13
CTC2_L_00344029-04
1 35615U 24501SC  26037.47793981  .00000000  00000+0  00000-0 0  9997
2 35615  70.0000 336.0000 0000000   0.0000 246.0000 13.42494869    14
CTC2_L_00344030-01
1 35616U 24308QX  26037.47793981  .00000000  00000+0  00000-0 0  9993
2 35616  70.0000 348.0000 0000000   0.0000 348.0000 13.42494869    11
CTC2_L_00344030-02
1 35617U 24803Y   26037.47793981  .00000000  00000+0  00000-0 0  9994
2 35617  70.0000 348.0000 0000000   0.0000  78.0000 13.42494869    12
CTC2_L_00344030-03
1 35618U 26143LW  26037.47793981  .00000000  00000+0  00000-0 0  9994
2 35618  70.0000 348.0000 0000000   0.0000 168.0000 13.42494869    13
CTC2_L_00344030-04
1 35619U 24842IH  26037.47793981  .00000000  00000+0  00000-0 0  9999
2 35619  70.0000 348.0000 0000000   0.0000 258.0000 13.42494869    14
